{
    "links": {
        "self": "http://www.neowsapp.com/rest/v1/neo/3829444?api_key=iIulBulltgU6a56xZRHN4H3l9WmuAYTsLGpBGhQ2"
    },
    "id": "3829444",
    "neo_reference_id": "3829444",
    "name": "(2018 RJ6)",
    "designation": "2018 RJ6",
    "nasa_jpl_url": "http://ssd.jpl.nasa.gov/sbdb.cgi?sstr=3829444",
    "absolute_magnitude_h": 26.6,
    "estimated_diameter": {
        "kilometers": {
            "estimated_diameter_min": 0.0127219879,
            "estimated_diameter_max": 0.0284472297
        },
        "meters": {
            "estimated_diameter_min": 12.7219878539,
            "estimated_diameter_max": 28.4472296503
        },
        "miles": {
            "estimated_diameter_min": 0.0079050743,
            "estimated_diameter_max": 0.0176762835
        },
        "feet": {
            "estimated_diameter_min": 41.7388066307,
            "estimated_diameter_max": 93.330808926
        }
    },
    "is_potentially_hazardous_asteroid": false,
    "close_approach_data": [
        {
            "close_approach_date": "2016-10-03",
            "close_approach_date_full": "2016-Oct-03 10:19",
            "epoch_date_close_approach": 1475489940000,
            "relative_velocity": {
                "kilometers_per_second": "18.7276903417",
                "kilometers_per_hour": "67419.6852302003",
                "miles_per_hour": "41891.9705253986"
            },
            "miss_distance": {
                "astronomical": "0.3874076702",
                "lunar": "150.7015837078",
                "kilometers": "57955362.283582474",
                "miles": "36011792.2340231812"
            },
            "orbiting_body": "Earth"
        },
        {
            "close_approach_date": "2018-09-10",
            "close_approach_date_full": "2018-Sep-10 15:45",
            "epoch_date_close_approach": 1536594300000,
            "relative_velocity": {
                "kilometers_per_second": "11.1498250305",
                "kilometers_per_hour": "40139.3701098353",
                "miles_per_hour": "24941.0436107474"
            },
            "miss_distance": {
                "astronomical": "0.0339634799",
                "lunar": "13.2117936811",
                "kilometers": "5080864.250827813",
                "miles": "3157102.6486692994"
            },
            "orbiting_body": "Earth"
        }
    ],
    "orbital_data": {
        "orbit_id": "3",
        "orbit_determination_date": "2018-09-17 07:13:20",
        "first_observation_date": "2018-09-13",
        "last_observation_date": "2018-09-17",
        "data_arc_in_days": 4,
        "observations_used": 28,
        "orbit_uncertainty": "8",
        "minimum_orbit_intersection": ".0328773",
        "jupiter_tisserand_invariant": "4.322",
        "epoch_osculation": "2458375.5",
        "eccentricity": ".3464577847848806",
        "semi_major_axis": "1.556660214384985",
        "inclination": "17.45765982763139",
        "ascending_node_longitude": "349.1370188064312",
        "orbital_period": "709.3967025782839",
        "perihelion_distance": "1.017343164846406",
        "perihelion_argument": "335.2144475250017",
        "aphelion_distance": "2.095977263923565",
        "perihelion_time": "2458351.474295216402",
        "mean_anomaly": "12.19240756358155",
        "mean_motion": ".5074734611700186",
        "equinox": "J2000",
        "orbit_class": {
            "orbit_class_type": "AMO",
            "orbit_class_description": "Near-Earth asteroid orbits similar to that of 1221 Amor",
            "orbit_class_range": "1.017 AU < q (perihelion) < 1.3 AU"
        }
    },
    "is_sentry_object": false
}